    CK25A060  2025 11  8.5383  0.529888  0.995631  132.9701  108.0979  143.6635  20251018  13.2  4.0  C/2025 A6 (Lemmon)                                       MPC188413
    CK25R020  2025 09 12.8314  0.504055  0.993421  308.3202  335.3457    4.4736  20251018  12.4  4.0  C/2025 R2 (SWAN)                                         MPC188414